CTC2_L_00196016-03
1 64404U 25430RB  26070.40844907  .00000000  00000+0  00000-0 0  9992
2 64404  70.0000 180.0000 0000000   0.0000   0.0000 14.70334635    13
CTC2_L_00196016-04
1 64405U 25976TK  26070.40844907  .00000000  00000+0  00000-0 0  9998
2 64405  70.0000 180.0000 0000000   0.0000  90.0000 14.70334635    13
CTC2_L_00196017-01
1 64406U 25112WK  26070.40844907  .00000000  00000+0  00000-0 0  9991
2 64406  70.0000 192.0000 0000000   0.0000 192.0000 14.70334635    10
CTC2_L_00196017-02
1 64407U 26733HR  26070.40844907  .00000000  00000+0  00000-0 0  9992
2 64407  70.0000 192.0000 0000000   0.0000 282.0000 14.70334635    11
CTC2_L_00196017-03
1 64408U 22983RT  26070.40844907  .00000000  00000+0  00000-0 0  9996
2 64408  70.0000 192.0000 0000000   0.0000  12.0000 14.70334635    13
CTC2_L_00196017-04
1 64409U 23641MH  26070.40844907  .00000000  00000+0  00000-0 0  9999
2 64409  70.0000 192.0000 0000000   0.0000 102.0000 14.70334635    14
CTC2_L_00196018-01
1 64410U 26008LM  26070.40844907  .00000000  00000+0  00000-0 0  9991
2 64410  70.0000 204.0000 0000000   0.0000 204.0000 14.70334635    13
CTC2_L_00196018-02
1 64411U 25564GY  26070.40844907  .00000000  00000+0  00000-0 0  9998
2 64411  70.0000 204.0000 0000000   0.0000 294.0000 14.70334635    13
CTC2_L_00196018-03
1 64412U 26868NE  26070.40844907  .00000000  00000+0  00000-0 0  9997
2 64412  70.0000 204.0000 0000000   0.0000  24.0000 14.70334635    15
CTC2_L_00196018-04
1 64413U 26157CE  26070.40844907  .00000000  00000+0  00000-0 0  9999
2 64413  70.0000 204.0000 0000000   0.0000 114.0000 14.70334635    16
CTC2_L_00196019-01
1 64414U 25395LD  26070.40844907  .00000000  00000+0  00000-0 0  9993
2 64414  70.0000 216.0000 0000000   0.0000 216.0000 14.70334635    13
CTC2_L_00196019-02
1 64415U 26353RN  26070.40844907  .00000000  00000+0  00000-0 0  9999
2 64415  70.0000 216.0000 0000000   0.0000 306.0000 14.70334635    14
CTC2_L_00196019-03
1 64416U 23340IF  26070.40844907  .00000000  00000+0  00000-0 0  9993
2 64416  70.0000 216.0000 0000000   0.0000  36.0000 14.70334635    15
CTC2_L_00196019-04
1 64417U 26085RJ  26070.40844907  .00000000  00000+0  00000-0 0  9993
2 64417  70.0000 216.0000 0000000   0.0000 126.0000 14.70334635    16
CTC2_L_00196020-01
1 64418U 24914JT  26070.40844907  .00000000  00000+0  00000-0 0  9993
2 64418  70.0000 228.0000 0000000   0.0000 228.0000 14.70334635    13
CTC2_L_00196020-02
1 64419U 25156RZ  26070.40844907  .00000000  00000+0  00000-0 0  9993
2 64419  70.0000 228.0000 0000000   0.0000 318.0000 14.70334635    14
CTC2_L_00196020-03
1 64420U 24635HS  26070.40844907  .00000000  00000+0  00000-0 0  9996
2 64420  70.0000 228.0000 0000000   0.0000  48.0000 14.70334635    16
CTC2_L_00196020-04
1 64421U 23995HI  26070.40844907  .00000000  00000+0  00000-0 0  9995
2 64421  70.0000 228.0000 0000000   0.0000 138.0000 14.70334635    17
CTC2_L_00196021-01
1 64422U 22049IA  26070.40844907  .00000000  00000+0  00000-0 0  9995
2 64422  70.0000 240.0000 0000000   0.0000 240.0000 14.70334635    16
CTC2_L_00196021-02
1 64423U 23248DR  26070.40844907  .00000000  00000+0  00000-0 0  9998
2 64423  70.0000 240.0000 0000000   0.0000 330.0000 14.70334635    17
CTC2_L_00196021-03
1 64424U 22509AR  26070.40844907  .00000000  00000+0  00000-0 0  9998
2 64424  70.0000 240.0000 0000000   0.0000  60.0000 14.70334635    18
CTC2_L_00196021-04
1 64425U 23718PI  26070.40844907  .00000000  00000+0  00000-0 0  9992
2 64425  70.0000 240.0000 0000000   0.0000 150.0000 14.70334635    19
CTC2_L_00196022-01
1 64426U 25090JP  26070.40844907  .00000000  00000+0  00000-0 0  9998
2 64426  70.0000 252.0000 0000000   0.0000 252.0000 14.70334635    16
CTC2_L_00196022-02
1 64427U 25625EL  26070.40844907  .00000000  00000+0  00000-0 0  9993
2 64427  70.0000 252.0000 0000000   0.0000 342.0000 14.70334635    17
CTC2_L_00196022-03
1 64428U 25588Y   26070.40844907  .00000000  00000+0  00000-0 0  9992
2 64428  70.0000 252.0000 0000000   0.0000  72.0000 14.70334635    18
CTC2_L_00196022-04
1 64429U 22916QK  26070.40844907  .00000000  00000+0  00000-0 0  9995
2 64429  70.0000 252.0000 0000000   0.0000 162.0000 14.70334635    19
CTC2_L_00196023-01
1 64430U 22676TD  26070.40844907  .00000000  00000+0  00000-0 0  9990
2 64430  70.0000 264.0000 0000000   0.0000 264.0000 14.70334635    17
CTC2_L_00196023-02
1 64431U 23050XL  26070.40844907  .00000000  00000+0  00000-0 0  9998
2 64431  70.0000 264.0000 0000000   0.0000 354.0000 14.70334635    18
CTC2_L_00196023-03
1 64432U 25385VW  26070.40844907  .00000000  00000+0  00000-0 0  9992
2 64432  70.0000 264.0000 0000000   0.0000  84.0000 14.70334635    19
CTC2_L_00196023-04
1 64433U 25122OS  26070.40844907  .00000000  00000+0  00000-0 0  9992
2 64433  70.0000 264.0000 0000000   0.0000 174.0000 14.70334635    10
CTC2_L_00196024-01
1 64434U 24974YS  26070.40844907  .00000000  00000+0  00000-0 0  9997
2 64434  70.0000 276.0000 0000000   0.0000 276.0000 14.70334635    17
CTC2_L_00196024-02
1 64435U 25657KL  26070.40844907  .00000000  00000+0  00000-0 0  9997
2 64435  70.0000 276.0000 0000000   0.0000   6.0000 14.70334635    19
CTC2_L_00196024-03
1 64436U 22978SH  26070.40844907  .00000000  00000+0  00000-0 0  9991
2 64436  70.0000 276.0000 0000000   0.0000  96.0000 14.70334635    19
CTC2_L_00196024-04
1 64437U 23310GN  26070.40844907  .00000000  00000+0  00000-0 0  9993
2 64437  70.0000 276.0000 0000000   0.0000 186.0000 14.70334635    10
CTC2_L_00196025-01
1 64438U 24796KR  26070.40844907  .00000000  00000+0  00000-0 0  9993
2 64438  70.0000 288.0000 0000000   0.0000 288.0000 14.70334635    17
CTC2_L_00196025-02
1 64439U 24819RB  26070.40844907  .00000000  00000+0  00000-0 0  9990
2 64439  70.0000 288.0000 0000000   0.0000  18.0000 14.70334635    19
CTC2_L_00196025-03
1 64440U 22635UF  26070.40844907  .00000000  00000+0  00000-0 0  9996
2 64440  70.0000 288.0000 0000000   0.0000 108.0000 14.70334635    11
CTC2_L_00196025-04
1 64441U 23312UU  26070.40844907  .00000000  00000+0  00000-0 0  9990
2 64441  70.0000 288.0000 0000000   0.0000 198.0000 14.70334635    11
CTC2_L_00196026-01
1 64442U 22884GQ  26070.40844907  .00000000  00000+0  00000-0 0  9994
2 64442  70.0000 300.0000 0000000   0.0000 300.0000 14.70334635    12
CTC2_L_00196026-02
1 64443U 23723RU  26070.40844907  .00000000  00000+0  00000-0 0  9998
2 64443  70.0000 300.0000 0000000   0.0000  30.0000 14.70334635    13
CTC2_L_00196026-03
1 64444U 23798R   26070.40844907  .00000000  00000+0  00000-0 0  9991
2 64444  70.0000 300.0000 0000000   0.0000 120.0000 14.70334635    14
CTC2_L_00196026-04
1 64445U 26655NE  26070.40844907  .00000000  00000+0  00000-0 0  9997
2 64445  70.0000 300.0000 0000000   0.0000 210.0000 14.70334635    15
CTC2_L_00196027-01
1 64446U 22125P   26070.40844907  .00000000  00000+0  00000-0 0  9996
2 64446  70.0000 312.0000 0000000   0.0000 312.0000 14.70334635    12
CTC2_L_00196027-02
1 64447U 23144XH  26070.40844907  .00000000  00000+0  00000-0 0  9999
2 64447  70.0000 312.0000 0000000   0.0000  42.0000 14.70334635    13
CTC2_L_00196027-03
1 64448U 22883XE  26070.40844907  .00000000  00000+0  00000-0 0  9999
2 64448  70.0000 312.0000 0000000   0.0000 132.0000 14.70334635    14
CTC2_L_00196027-04
1 64449U 26749XL  26070.40844907  .00000000  00000+0  00000-0 0  9995
2 64449  70.0000 312.0000 0000000   0.0000 222.0000 14.70334635    15
CTC2_L_00196028-01
1 64450U 22620QP  26070.40844907  .00000000  00000+0  00000-0 0  9991
2 64450  70.0000 324.0000 0000000   0.0000 324.0000 14.70334635    13
CTC2_L_00196028-02
1 64451U 24726GV  26070.40844907  .00000000  00000+0  00000-0 0  9991
2 64451  70.0000 324.0000 0000000   0.0000  54.0000 14.70334635    14
CTC2_L_00196028-03
1 64452U 22495OU  26070.40844907  .00000000  00000+0  00000-0 0  9993
2 64452  70.0000 324.0000 0000000   0.0000 144.0000 14.70334635    15
CTC2_L_00196028-04
1 64453U 25027NS  26070.40844907  .00000000  00000+0  00000-0 0  9998
2 64453  70.0000 324.0000 0000000   0.0000 234.0000 14.70334635    16
CTC2_L_00196029-01
1 64454U 23700AK  26070.40844907  .00000000  00000+0  00000-0 0  9995
2 64454  70.0000 336.0000 0000000   0.0000 336.0000 14.70334635    13
CTC2_L_00196029-02
1 64455U 22610PH  26070.40844907  .00000000  00000+0  00000-0 0  9995
2 64455  70.0000 336.0000 0000000   0.0000  66.0000 14.70334635    14
CTC2_L_00196029-03
1 64456U 24733KC  26070.40844907  .00000000  00000+0  00000-0 0  9994
2 64456  70.0000 336.0000 0000000   0.0000 156.0000 14.70334635    15
CTC2_L_00196029-04
1 64457U 22717HM  26070.40844907  .00000000  00000+0  00000-0 0  9995
2 64457  70.0000 336.0000 0000000   0.0000 246.0000 14.70334635    16
CTC2_L_00196030-01
1 64458U 25791DT  26070.40844907  .00000000  00000+0  00000-0 0  9991
2 64458  70.0000 348.0000 0000000   0.0000 348.0000 14.70334635    13
CTC2_L_00196030-02
1 64459U 24677JB  26070.40844907  .00000000  00000+0  00000-0 0  9994
2 64459  70.0000 348.0000 0000000   0.0000  78.0000 14.70334635    14
CTC2_L_00196030-03
1 64460U 23959QW  26070.40844907  .00000000  00000+0  00000-0 0  9998
2 64460  70.0000 348.0000 0000000   0.0000 168.0000 14.70334635    16
CTC2_L_00196030-04
1 64461U 22895D   26070.40844907  .00000000  00000+0  00000-0 0  9997
2 64461  70.0000 348.0000 0000000   0.0000 258.0000 14.70334635    17
